[{"OBJECT_NAME":"GAOFEN DUOMO (GFDM)","OBJECT_ID":"2020-042A","EPOCH":"2026-03-09T22:46:55.447968","MEAN_MOTION":14.76842284,"ECCENTRICITY":0.00121367,"INCLINATION":97.7864,"RA_OF_ASC_NODE":132.3939,"ARG_OF_PERICENTER":38.3075,"MEAN_ANOMALY":321.8996,"EPHEMERIS_TYPE":0,"CLASSIFICATION_TYPE":"U","NORAD_CAT_ID":45856,"ELEMENT_SET_NO":999,"REV_AT_EPOCH":30636,"BSTAR":0.00021262668,"MEAN_MOTION_DOT":1.445e-5,"MEAN_MOTION_DDOT":0},{"OBJECT_NAME":"COSMOS 2251 DEB","OBJECT_ID":"1993-036ALW","EPOCH":"2026-03-09T15:19:20.387424","MEAN_MOTION":14.78351475,"ECCENTRICITY":0.00162156,"INCLINATION":73.9755,"RA_OF_ASC_NODE":249.9309,"ARG_OF_PERICENTER":218.7605,"MEAN_ANOMALY":261.3335,"EPHEMERIS_TYPE":0,"CLASSIFICATION_TYPE":"U","NORAD_CAT_ID":35476,"ELEMENT_SET_NO":999,"REV_AT_EPOCH":89170,"BSTAR":0.0017997761,"MEAN_MOTION_DOT":0.00013116,"MEAN_MOTION_DDOT":0}]
